{
  "type": "FeatureCollection",
  "features": [
    {
      "type": "Feature",
      "properties": {
        "norad_id": 66625,
        "name": "STARLINK-35929",
        "group": "last-30-days",
        "lat": -52.102708541924045,
        "lon": 98.55539514552711,
        "alt_km": 378.30019648534835,
        "timestamp": "2025-12-09T05:43:19.510431+00:00",
        "meta_object_name": "STARLINK-35929",
        "meta_object_id": "2025-271J",
        "meta_epoch": "2025-12-08T20:00:01.999008",
        "meta_mean_motion": 15.67095201,
        "meta_eccentricity": 0.0001229,
        "meta_inclination": 53.159,
        "meta_ra_of_asc_node": 206.1347,
        "meta_arg_of_pericenter": 116.4849,
        "meta_mean_anomaly": 18.9282,
        "meta_ephemeris_type": 0,
        "meta_classification_type": "U",
        "meta_norad_cat_id": 66625,
        "meta_element_set_no": 999,
        "meta_rev_at_epoch": 361,
        "meta_bstar": -0.023142,
        "meta_mean_motion_dot": -0.02189238,
        "meta_mean_motion_ddot": 0,
        "tle_line1": "1 66625U 25271J   25342.83335647 -.02189238  00000+0 -23142-1 0  9994",
        "tle_line2": "2 66625  53.1590 206.1347 0001229 116.4849  18.9282 15.67095201  3616"
      },
      "geometry": {
        "type": "Point",
        "coordinates": [
          98.55539514552711,
          -52.102708541924045
        ]
      }
    },
    {
      "type": "Feature",
      "properties": {
        "norad_id": 66626,
        "name": "STARLINK-35902",
        "group": "last-30-days",
        "lat": -52.46997730645089,
        "lon": 101.57345570406427,
        "alt_km": 378.1823951518991,
        "timestamp": "2025-12-09T05:43:19.510441+00:00",
        "meta_object_name": "STARLINK-35902",
        "meta_object_id": "2025-271K",
        "meta_epoch": "2025-12-08T20:00:01.999008",
        "meta_mean_motion": 15.66964959,
        "meta_eccentricity": 0.0001141,
        "meta_inclination": 53.1593,
        "meta_ra_of_asc_node": 206.1302,
        "meta_arg_of_pericenter": 94.5676,
        "meta_mean_anomaly": 42.7852,
        "meta_ephemeris_type": 0,
        "meta_classification_type": "U",
        "meta_norad_cat_id": 66626,
        "meta_element_set_no": 999,
        "meta_rev_at_epoch": 361,
        "meta_bstar": -0.020893,
        "meta_mean_motion_dot": -0.01993086,
        "meta_mean_motion_ddot": 0,
        "tle_line1": "1 66626U 25271K   25342.83335647 -.01993086  00000+0 -20893-1 0  9998",
        "tle_line2": "2 66626  53.1593 206.1302 0001141  94.5676  42.7852 15.66964959  3610"
      },
      "geometry": {
        "type": "Point",
        "coordinates": [
          101.57345570406427,
          -52.46997730645089
        ]
      }
    },
    {
      "type": "Feature",
      "properties": {
        "norad_id": 66627,
        "name": "STARLINK-35904",
        "group": "last-30-days",
        "lat": -52.762729002981395,
        "lon": 104.68959774988046,
        "alt_km": 378.12232655037405,
        "timestamp": "2025-12-09T05:43:19.510454+00:00",
        "meta_object_name": "STARLINK-35904",
        "meta_object_id": "2025-271L",
        "meta_epoch": "2025-12-08T20:00:01.999008",
        "meta_mean_motion": 15.66920541,
        "meta_eccentricity": 0.0001024,
        "meta_inclination": 53.1591,
        "meta_ra_of_asc_node": 206.126,
        "meta_arg_of_pericenter": 107.2521,
        "meta_mean_anomaly": 32.0612,
        "meta_ephemeris_type": 0,
        "meta_classification_type": "U",
        "meta_norad_cat_id": 66627,
        "meta_element_set_no": 999,
        "meta_rev_at_epoch": 345,
        "meta_bstar": -0.020546,
        "meta_mean_motion_dot": -0.01960681,
        "meta_mean_motion_ddot": 0,
        "tle_line1": "1 66627U 25271L   25342.83335647 -.01960681  00000+0 -20546-1 0  9999",
        "tle_line2": "2 66627  53.1591 206.1260 0001024 107.2521  32.0612 15.66920541  3450"
      },
      "geometry": {
        "type": "Point",
        "coordinates": [
          104.68959774988046,
          -52.762729002981395
        ]
      }
    },
    {
      "type": "Feature",
      "properties": {
        "norad_id": 66628,
        "name": "STARLINK-35862",
        "group": "last-30-days",
        "lat": -52.97200090361974,
        "lon": 107.82896478687769,
        "alt_km": 378.2038065702254,
        "timestamp": "2025-12-09T05:43:19.510466+00:00",
        "meta_object_name": "STARLINK-35862",
        "meta_object_id": "2025-271M",
        "meta_epoch": "2025-12-08T20:00:01.999008",
        "meta_mean_motion": 15.66964128,
        "meta_eccentricity": 0.0001156,
        "meta_inclination": 53.159,
        "meta_ra_of_asc_node": 206.1223,
        "meta_arg_of_pericenter": 100.4438,
        "meta_mean_anomaly": 40.742,
        "meta_ephemeris_type": 0,
        "meta_classification_type": "U",
        "meta_norad_cat_id": 66628,
        "meta_element_set_no": 999,
        "meta_rev_at_epoch": 361,
        "meta_bstar": -0.02088,
        "meta_mean_motion_dot": -0.0199191,
        "meta_mean_motion_ddot": 0,
        "tle_line1": "1 66628U 25271M   25342.83335647 -.01991910  00000+0 -20880-1 0  9990",
        "tle_line2": "2 66628  53.1590 206.1223 0001156 100.4438  40.7420 15.66964128  3617"
      },
      "geometry": {
        "type": "Point",
        "coordinates": [
          107.82896478687769,
          -52.97200090361974
        ]
      }
    },
    {
      "type": "Feature",
      "properties": {
        "norad_id": 66629,
        "name": "STARLINK-35956",
        "group": "last-30-days",
        "lat": -53.0980549425645,
        "lon": 110.99995138208669,
        "alt_km": 378.21675770388447,
        "timestamp": "2025-12-09T05:43:19.510479+00:00",
        "meta_object_name": "STARLINK-35956",
        "meta_object_id": "2025-271N",
        "meta_epoch": "2025-12-08T20:00:01.999008",
        "meta_mean_motion": 15.66969541,
        "meta_eccentricity": 0.0001146,
        "meta_inclination": 53.1591,
        "meta_ra_of_asc_node": 206.1187,
        "meta_arg_of_pericenter": 96.9588,
        "meta_mean_anomaly": 46.142,
        "meta_ephemeris_type": 0,
        "meta_classification_type": "U",
        "meta_norad_cat_id": 66629,
        "meta_element_set_no": 999,
        "meta_rev_at_epoch": 361,
        "meta_bstar": -0.020958,
        "meta_mean_motion_dot": -0.01998823,
        "meta_mean_motion_ddot": 0,
        "tle_line1": "1 66629U 25271N   25342.83335647 -.01998823  00000+0 -20958-1 0  9997",
        "tle_line2": "2 66629  53.1591 206.1187 0001146  96.9588  46.1420 15.66969541  3616"
      },
      "geometry": {
        "type": "Point",
        "coordinates": [
          110.99995138208669,
          -53.0980549425645
        ]
      }
    },
    {
      "type": "Feature",
      "properties": {
        "norad_id": 66630,
        "name": "STARLINK-35949",
        "group": "last-30-days",
        "lat": -53.13916263836052,
        "lon": 114.18035414084498,
        "alt_km": 378.19997397609313,
        "timestamp": "2025-12-09T05:43:19.510489+00:00",
        "meta_object_name": "STARLINK-35949",
        "meta_object_id": "2025-271P",
        "meta_epoch": "2025-12-08T20:00:01.999008",
        "meta_mean_motion": 15.66968509,
        "meta_eccentricity": 0.0001107,
        "meta_inclination": 53.1591,
        "meta_ra_of_asc_node": 206.114,
        "meta_arg_of_pericenter": 98.0486,
        "meta_mean_anomaly": 46.9704,
        "meta_ephemeris_type": 0,
        "meta_classification_type": "U",
        "meta_norad_cat_id": 66630,
        "meta_element_set_no": 999,
        "meta_rev_at_epoch": 361,
        "meta_bstar": -0.020972,
        "meta_mean_motion_dot": -0.01999956,
        "meta_mean_motion_ddot": 0,
        "tle_line1": "1 66630U 25271P   25342.83335647 -.01999956  00000+0 -20972-1 0  9993",
        "tle_line2": "2 66630  53.1591 206.1140 0001107  98.0486  46.9704 15.66968509  3610"
      },
      "geometry": {
        "type": "Point",
        "coordinates": [
          114.18035414084498,
          -53.13916263836052
        ]
      }
    },
    {
      "type": "Feature",
      "properties": {
        "norad_id": 66631,
        "name": "STARLINK-35965",
        "group": "last-30-days",
        "lat": -53.09538380454829,
        "lon": 117.36333250684828,
        "alt_km": 378.1778918495629,
        "timestamp": "2025-12-09T05:43:19.510499+00:00",
        "meta_object_name": "STARLINK-35965",
        "meta_object_id": "2025-271Q",
        "meta_epoch": "2025-12-08T20:00:01.999008",
        "meta_mean_motion": 15.66968535,
        "meta_eccentricity": 0.0001086,
        "meta_inclination": 53.1593,
        "meta_ra_of_asc_node": 206.1103,
        "meta_arg_of_pericenter": 98.3392,
        "meta_mean_anomaly": 48.5943,
        "meta_ephemeris_type": 0,
        "meta_classification_type": "U",
        "meta_norad_cat_id": 66631,
        "meta_element_set_no": 999,
        "meta_rev_at_epoch": 361,
        "meta_bstar": -0.02093,
        "meta_mean_motion_dot": -0.01996354,
        "meta_mean_motion_ddot": 0,
        "tle_line1": "1 66631U 25271Q   25342.83335647 -.01996354  00000+0 -20930-1 0  9997",
        "tle_line2": "2 66631  53.1593 206.1103 0001086  98.3392  48.5943 15.66968535  3619"
      },
      "geometry": {
        "type": "Point",
        "coordinates": [
          117.36333250684828,
          -53.09538380454829
        ]
      }
    }
  ]
}